*******************************************************************************
Ephemeris / PORT_LOGIN Sun Nov 27 10:14:51 2011 Pasadena, USA    / Horizons    
*******************************************************************************
Target body name: Juliet (711)                    {source: URA086}
Center body name: Solar System Barycenter (0)     {source: DE405}
Center-site name: BODY CENTER
*******************************************************************************
Start time      : A.D. 2001-Jan-01 10:00:00.0000 CT 
Stop  time      : A.D. 2001-Jan-02 00:00:00.0000 CT 
Step-size       : 60 minutes
*******************************************************************************
Center geodetic : 0.00000000,0.00000000,0.0000000 {E-lon(deg),Lat(deg),Alt(km)}
Center cylindric: 0.00000000,0.00000000,0.0000000 {E-lon(deg),Dxy(km),Dz(km)}
Center radii    : (undefined)                                                  
Output units    : AU-D                                                         
Output format   : 03
Reference frame : ICRF/J2000.0                                                 
Output type     : GEOMETRIC cartesian states
Coordinate systm: Earth Mean Equator and Equinox of Reference Epoch            
*******************************************************************************
JDCT 
   X     Y     Z
   VX    VY    VZ
   LT    RG    RR
*******************************************************************************
$$SOE
2451910.916666667 = A.D. 2001-Jan-01 10:00:00.0000 (CT)
   1.536983466543188E+01 -1.158008508313340E+01 -5.288720983711437E+00
   7.702527645219057E-03  1.863171681157315E-03 -3.823181675146024E-04
   1.152647553894200E-01  1.995747373338795E+01  4.952173068392645E-03
2451910.958333333 = A.D. 2001-Jan-01 11:00:00.0000 (CT)
   1.537013245223239E+01 -1.157998779267424E+01 -5.288788927993083E+00
   6.370464721056444E-03  2.820303727377977E-03 -2.749443242098993E-03
   1.152658578756375E-01  1.995766462295911E+01  3.998314947902340E-03
2451911.000000000 = A.D. 2001-Jan-01 12:00:00.0000 (CT)
   1.537035048794491E+01 -1.157985083114115E+01 -5.288935172312782E+00
   3.965102939405544E-03  3.722279934578986E-03 -4.051659805132995E-03
   1.152665925508120E-01  1.995779182802235E+01  1.967679685873071E-03
2451911.041666667 = A.D. 2001-Jan-01 13:00:00.0000 (CT)
   1.537045714748095E+01 -1.157968186901153E+01 -5.289106595032635E+00
   1.151048479047085E-03  4.319998112067585E-03 -3.929561426221585E-03
   1.152667631488859E-01  1.995782136616320E+01 -5.786299528249747E-04
2451911.083333333 = A.D. 2001-Jan-01 14:00:00.0000 (CT)
   1.537045157142126E+01 -1.157949740507794E+01 -5.289243159257253E+00
  -1.294873132201183E-03  4.448883960505744E-03 -2.418371868252533E-03
   1.152663292391532E-01  1.995774623702192E+01 -2.937569577688717E-03
2451911.125000000 = A.D. 2001-Jan-01 15:00:00.0000 (CT)
   1.537036384176300E+01 -1.157931818908953E+01 -5.289294518615104E+00
  -2.699528975940327E-03  4.074199671099835E-03  6.340313528708866E-05
   1.152654170861390E-01  1.995758830262331E+01 -4.459684879027767E-03
2451911.166666667 = A.D. 2001-Jan-01 16:00:00.0000 (CT)
   1.537024660028991E+01 -1.157916349171662E+01 -5.289233860274508E+00
  -2.678449864303309E-03  3.299843253619636E-03  2.831661311022985E-03
   1.152642843653325E-01  1.995739217809534E+01 -4.727831046092706E-03
2451911.208333333 = A.D. 2001-Jan-01 17:00:00.0000 (CT)
   1.537016051828162E+01 -1.157904581638982E+01 -5.289065194542249E+00
  -1.239330660149516E-03  2.339003640497008E-03  5.125812336746710E-03
   1.152632489807627E-01  1.995721290681432E+01 -3.669996279830096E-03
2451911.250000000 = A.D. 2001-Jan-01 18:00:00.0000 (CT)
   1.537015765403084E+01 -1.157896749043015E+01 -5.288822179727029E+00
   1.222011865757674E-03  1.455503043916408E-03  6.316495535354343E-03
   1.152626018185834E-01  1.995710085415649E+01 -1.577259608572421E-03
2451911.291666667 = A.D. 2001-Jan-01 19:00:00.0000 (CT)
   1.537026721523202E+01 -1.157892003929864E+01 -5.288558878170879E+00
   4.030150990388222E-03  8.919283791598931E-04  6.076472115303606E-03
   1.152625271613132E-01  1.995708792765086E+01  9.761519202702509E-04
2451911.333333333 = A.D. 2001-Jan-01 20:00:00.0000 (CT)
   1.537048754742970E+01 -1.157888650088280E+01 -5.288334964051056E+00
   6.413645860954285E-03  8.035474992911647E-04  4.470092037686711E-03
   1.152630521529178E-01  1.995717882712941E+01  3.288908472494633E-03
2451911.375000000 = A.D. 2001-Jan-01 21:00:00.0000 (CT)
   1.537078652277241E+01 -1.157884606223210E+01 -5.288199359672714E+00
   7.715603826716069E-03  1.215477291804165E-03  1.937356612919526E-03
   1.152640390151044E-01  1.995734969702021E+01  4.723871069662962E-03
2451911.416666667 = A.D. 2001-Jan-01 22:00:00.0000 (CT)
   1.537111029019590E+01 -1.157877977669471E+01 -5.288176736305472E+00
   7.575135395125804E-03  2.014974365678501E-03 -8.248494189215088E-04
   1.152652224726255E-01  1.995755460633800E+01  4.883827132955008E-03
2451911.458333333 = A.D. 2001-Jan-01 23:00:00.0000 (CT)
   1.537139807649492E+01 -1.157867580152017E+01 -5.288260624994884E+00
   6.029160773490983E-03  2.981781396804714E-03 -3.054102142003877E-03
   1.152662826071712E-01  1.995773816294452E+01  3.722988933292099E-03
2451911.500000000 = A.D. 2001-Jan-02 00:00:00.0000 (CT)
   1.537159899100174E+01 -1.157853269280195E+01 -5.288415132425902E+00
   3.504043036053423E-03  3.848892063933022E-03 -4.134245579507432E-03
   1.152669332771262E-01  1.995785082295487E+01  1.561381982678300E-03
$$EOE
*******************************************************************************
Coordinate system description:

  Earth Mean Equator and Equinox of Reference Epoch

    Reference epoch: J2000.0
    xy-plane: plane of the Earth's mean equator at the reference epoch
    x-axis  : out along ascending node of instantaneous plane of the Earth's
              orbit and the Earth's mean equator at the reference epoch
    z-axis  : along the Earth mean north pole at the reference epoch

Symbol meaning [1 AU=149597870.691 km, 1 day=86400.0 s]:

    JDCT     Epoch Julian Date, Coordinate Time
      X      x-component of position vector (AU)                               
      Y      y-component of position vector (AU)                               
      Z      z-component of position vector (AU)                               
      VX     x-component of velocity vector (AU/day)                           
      VY     y-component of velocity vector (AU/day)                           
      VZ     z-component of velocity vector (AU/day)                           
      LT     One-way down-leg Newtonian light-time (day)                       
      RG     Range; distance from coordinate center (AU)                       
      RR     Range-rate; radial velocity wrt coord. center (AU/day)            

Geometric states/elements have no aberration corrections applied.

 Computations by ...
     Solar System Dynamics Group, Horizons On-Line Ephemeris System
     4800 Oak Grove Drive, Jet Propulsion Laboratory
     Pasadena, CA  91109   USA
     Information: http://ssd.jpl.nasa.gov/
     Connect    : telnet://ssd.jpl.nasa.gov:6775  (via browser)
                  telnet ssd.jpl.nasa.gov 6775    (via command-line)
     Author     : Jon.Giorgini@jpl.nasa.gov
*******************************************************************************
